start=new Date('2022-01-11T00:00:00.000Z').valueOf();
sats=[{"EPOCH":"2022-01-10T14:09:54.751392","ELEMENT_SET_NO":"999","COUNTRY_CODE":"US","APOAPSIS":"548.089","LAUNCH_DATE":"2020-03-18","MEAN_ELEMENT_THEORY":"SGP4","NORAD_CAT_ID":"45364","TIME_SYSTEM":"UTC","EPHEMERIS_TYPE":"0","ECCENTRICITY":"0.00012770","DECAY_DATE":null,"SEMIMAJOR_AXIS":"6925.340","REV_AT_EPOCH":"10117","CENTER_NAME":"EARTH","MEAN_MOTION":"15.06402848","RA_OF_ASC_NODE":"116.1252","ARG_OF_PERICENTER":"82.5507","CLASSIFICATION_TYPE":"U","OBJECT_NAME":"STARLINK-1313","TLE_LINE1":"1 45364U 20019E   22010.59021703  .00000545  00000-0  55447-4 0  9999","BSTAR":"0.00005544700000","RCS_SIZE":"LARGE","FILE":"3268856","MEAN_MOTION_DDOT":"0.0000000000000","OBJECT_TYPE":"PAYLOAD","REF_FRAME":"TEME","OBJECT_ID":"2020-019E","MEAN_MOTION_DOT":"0.00000545","INCLINATION":"53.0550","PERIAPSIS":"546.320","MEAN_ANOMALY":"277.5627","PERIOD":"95.592","TLE_LINE2":"2 45364  53.0550 116.1252 0001277  82.5507 277.5627 15.06402848101178","GP_ID":"193592985","SITE":"AFETR"},{"PERIAPSIS":"548.745","MEAN_MOTION_DOT":"0.00004035","INCLINATION":"53.0011","OBJECT_ID":"2020-019F","SITE":"AFETR","GP_ID":"193593230","MEAN_ANOMALY":"259.4284","PERIOD":"95.643","TLE_LINE2":"2 45365  53.0011 126.1829 0001333 100.6854 259.4284 15.05599356101002","RCS_SIZE":"LARGE","TLE_LINE1":"1 45365U 20019F   22010.57917044  .00004035  00000-0  29581-3 0  9997","BSTAR":"0.00029581000000","OBJECT_NAME":"STARLINK-1317","REF_FRAME":"TEME","OBJECT_TYPE":"PAYLOAD","MEAN_MOTION_DDOT":"0.0000000000000","FILE":"3268856","ARG_OF_PERICENTER":"100.6854","RA_OF_ASC_NODE":"126.1829","CENTER_NAME":"EARTH","MEAN_MOTION":"15.05599356","CLASSIFICATION_TYPE":"U","LAUNCH_DATE":"2020-03-18","ELEMENT_SET_NO":"999","COUNTRY_CODE":"US","APOAPSIS":"550.592","EPOCH":"2022-01-10T13:54:00.326016","EPHEMERIS_TYPE":"0","DECAY_DATE":null,"ECCENTRICITY":"0.00013330","SEMIMAJOR_AXIS":"6927.804","REV_AT_EPOCH":"10100","TIME_SYSTEM":"UTC","MEAN_ELEMENT_THEORY":"SGP4","NORAD_CAT_ID":"45365"},{"EPOCH":"2022-01-10T16:18:37.706112","LAUNCH_DATE":"2020-03-18","COUNTRY_CODE":"US","APOAPSIS":"548.556","ELEMENT_SET_NO":"999","NORAD_CAT_ID":"45366","MEAN_ELEMENT_THEORY":"SGP4","DECAY_DATE":null,"SEMIMAJOR_AXIS":"6925.347","REV_AT_EPOCH":"10078","ECCENTRICITY":"0.00019410","EPHEMERIS_TYPE":"0","TIME_SYSTEM":"UTC","RA_OF_ASC_NODE":"145.7125","MEAN_MOTION":"15.06400469","CENTER_NAME":"EARTH","ARG_OF_PERICENTER":"94.7398","CLASSIFICATION_TYPE":"U","BSTAR":"-0.00000480960000","TLE_LINE1":"1 45366U 20019G   22010.67960308 -.00000353  00000-0 -48096-5 0  9995","OBJECT_NAME":"STARLINK-1262","RCS_SIZE":"LARGE","MEAN_MOTION_DDOT":"0.0000000000000","FILE":"3269118","REF_FRAME":"TEME","OBJECT_TYPE":"PAYLOAD","OBJECT_ID":"2020-019G","PERIAPSIS":"545.868","MEAN_MOTION_DOT":"-0.00000353","INCLINATION":"53.0537","TLE_LINE2":"2 45366  53.0537 145.7125 0001941  94.7398 265.3812 15.06400469100787","PERIOD":"95.592","MEAN_ANOMALY":"265.3812","SITE":"AFETR","GP_ID":"193622387"},{"REF_FRAME":"TEME","OBJECT_TYPE":"PAYLOAD","MEAN_MOTION_DDOT":"0.0000000000000","FILE":"3269118","RCS_SIZE":"LARGE","BSTAR":"0.00011691000000","TLE_LINE1":"1 45367U 20019H   22010.63536609  .00001460  00000-0  11691-3 0  9992","OBJECT_NAME":"STARLINK-1273","GP_ID":"193623136","SITE":"AFETR","MEAN_ANOMALY":"262.4284","TLE_LINE2":"2 45367  53.0547 145.9297 0001988  97.6931 262.4284 15.06408297100774","PERIOD":"95.592","PERIAPSIS":"545.811","INCLINATION":"53.0547","MEAN_MOTION_DOT":"0.00001460","OBJECT_ID":"2020-019H","EPHEMERIS_TYPE":"0","DECAY_DATE":null,"SEMIMAJOR_AXIS":"6925.323","REV_AT_EPOCH":"10077","ECCENTRICITY":"0.00019880","TIME_SYSTEM":"UTC","NORAD_CAT_ID":"45367","MEAN_ELEMENT_THEORY":"SGP4","LAUNCH_DATE":"2020-03-18","ELEMENT_SET_NO":"999","APOAPSIS":"548.565","COUNTRY_CODE":"US","EPOCH":"2022-01-10T15:14:55.630176","CLASSIFICATION_TYPE":"U","ARG_OF_PERICENTER":"97.6931","RA_OF_ASC_NODE":"145.9297","CENTER_NAME":"EARTH","MEAN_MOTION":"15.06408297"},{"EPOCH":"2022-01-10T16:08:00.567456","ELEMENT_SET_NO":"999","COUNTRY_CODE":"US","APOAPSIS":"548.996","LAUNCH_DATE":"2020-03-18","NORAD_CAT_ID":"45368","MEAN_ELEMENT_THEORY":"SGP4","TIME_SYSTEM":"UTC","EPHEMERIS_TYPE":"0","DECAY_DATE":null,"REV_AT_EPOCH":"10078","SEMIMAJOR_AXIS":"6925.357","ECCENTRICITY":"0.00025620","CENTER_NAME":"EARTH","MEAN_MOTION":"15.06397373","RA_OF_ASC_NODE":"145.7478","ARG_OF_PERICENTER":"108.6354","CLASSIFICATION_TYPE":"U","OBJECT_NAME":"STARLINK-1276","TLE_LINE1":"1 45368U 20019J   22010.67222879  .00001702  00000-0  13319-3 0  9996","BSTAR":"0.00013319000000","RCS_SIZE":"LARGE","FILE":"3269118","MEAN_MOTION_DDOT":"0.0000000000000","OBJECT_TYPE":"PAYLOAD","REF_FRAME":"TEME","OBJECT_ID":"2020-019J","MEAN_MOTION_DOT":"0.00001702","INCLINATION":"53.0534","PERIAPSIS":"545.447","MEAN_ANOMALY":"251.4914","TLE_LINE2":"2 45368  53.0534 145.7478 0002562 108.6354 251.4914 15.06397373100782","PERIOD":"95.592","GP_ID":"193623388","SITE":"AFETR"},{"TLE_LINE1":"1 45369U 20019K   22010.67128521 -.00000207  00000-0  50199-5 0  9995","BSTAR":"0.00000501990000","OBJECT_NAME":"STARLINK-1277","RCS_SIZE":"LARGE","MEAN_MOTION_DDOT":"0.0000000000000","FILE":"3269118","REF_FRAME":"TEME","OBJECT_TYPE":"PAYLOAD","OBJECT_ID":"2020-019K","PERIAPSIS":"546.135","MEAN_MOTION_DOT":"-0.00000207","INCLINATION":"53.0548","PERIOD":"95.592","TLE_LINE2":"2 45369  53.0548 145.7651 0001534  86.6444 273.4720 15.06405230100785","MEAN_ANOMALY":"273.4720","GP_ID":"193623638","SITE":"AFETR","EPOCH":"2022-01-10T16:06:39.042144","LAUNCH_DATE":"2020-03-18","APOAPSIS":"548.260","COUNTRY_CODE":"US","ELEMENT_SET_NO":"999","MEAN_ELEMENT_THEORY":"SGP4","NORAD_CAT_ID":"45369","DECAY_DATE":null,"SEMIMAJOR_AXIS":"6925.333","ECCENTRICITY":"0.00015340","REV_AT_EPOCH":"10078","EPHEMERIS_TYPE":"0","TIME_SYSTEM":"UTC","RA_OF_ASC_NODE":"145.7651","MEAN_MOTION":"15.06405230","CENTER_NAME":"EARTH","ARG_OF_PERICENTER":"86.6444","CLASSIFICATION_TYPE":"U"},{"PERIAPSIS":"545.852","INCLINATION":"53.0559","MEAN_MOTION_DOT":"-0.00000186","OBJECT_ID":"2020-019L","SITE":"AFETR","GP_ID":"193622887","TLE_LINE2":"2 45370  53.0559 145.7940 0001948  90.0432 270.0780 15.06404116100786","PERIOD":"95.592","MEAN_ANOMALY":"270.0780","RCS_SIZE":"LARGE","TLE_LINE1":"1 45370U 20019L   22010.66117021 -.00000186  00000-0  64005-5 0  9996","BSTAR":"0.00000640050000","OBJECT_NAME":"STARLINK-1281","REF_FRAME":"TEME","OBJECT_TYPE":"PAYLOAD","MEAN_MOTION_DDOT":"0.0000000000000","FILE":"3269118","ARG_OF_PERICENTER":"90.0432","RA_OF_ASC_NODE":"145.7940","MEAN_MOTION":"15.06404116","CENTER_NAME":"EARTH","CLASSIFICATION_TYPE":"U","LAUNCH_DATE":"2020-03-18","COUNTRY_CODE":"US","APOAPSIS":"548.550","ELEMENT_SET_NO":"999","EPOCH":"2022-01-10T15:52:05.106144","SEMIMAJOR_AXIS":"6925.336","DECAY_DATE":null,"ECCENTRICITY":"0.00019480","REV_AT_EPOCH":"10078","EPHEMERIS_TYPE":"0","TIME_SYSTEM":"UTC","MEAN_ELEMENT_THEORY":"SGP4","NORAD_CAT_ID":"45370"},{"CLASSIFICATION_TYPE":"U","RA_OF_ASC_NODE":"145.6637","MEAN_MOTION":"15.06399540","CENTER_NAME":"EARTH","ARG_OF_PERICENTER":"97.0147","NORAD_CAT_ID":"45371","MEAN_ELEMENT_THEORY":"SGP4","DECAY_DATE":null,"ECCENTRICITY":"0.00021460","SEMIMAJOR_AXIS":"6925.350","REV_AT_EPOCH":"10078","EPHEMERIS_TYPE":"0","TIME_SYSTEM":"UTC","EPOCH":"2022-01-10T16:34:33.100032","LAUNCH_DATE":"2020-03-18","APOAPSIS":"548.701","COUNTRY_CODE":"US","ELEMENT_SET_NO":"999","TLE_LINE2":"2 45371  53.0548 145.6637 0002146  97.0147 263.1087 15.06399540100785","PERIOD":"95.592","MEAN_ANOMALY":"263.1087","GP_ID":"193622637","SITE":"AFETR","OBJECT_ID":"2020-019M","PERIAPSIS":"545.729","INCLINATION":"53.0548","MEAN_MOTION_DOT":"-0.00000267","MEAN_MOTION_DDOT":"0.0000000000000","FILE":"3269118","REF_FRAME":"TEME","OBJECT_TYPE":"PAYLOAD","TLE_LINE1":"1 45371U 20019M   22010.69066088 -.00000267  00000-0  96958-6 0  9999","BSTAR":"0.00000096958000","OBJECT_NAME":"STARLINK-1287","RCS_SIZE":"LARGE"},{"GP_ID":"193623888","SITE":"AFETR","PERIOD":"95.592","TLE_LINE2":"2 45372  53.0546 145.9105 0001840  96.3936 263.7263 15.06404913100777","MEAN_ANOMALY":"263.7263","PERIAPSIS":"545.924","INCLINATION":"53.0546","MEAN_MOTION_DOT":"0.00001373","OBJECT_ID":"2020-019N","REF_FRAME":"TEME","OBJECT_TYPE":"PAYLOAD","MEAN_MOTION_DDOT":"0.0000000000000","FILE":"3269118","RCS_SIZE":"LARGE","TLE_LINE1":"1 45372U 20019N   22010.63905625  .00001373  00000-0  11106-3 0  9990","BSTAR":"0.00011106000000","OBJECT_NAME":"STARLINK-1288","CLASSIFICATION_TYPE":"U","ARG_OF_PERICENTER":"96.3936","RA_OF_ASC_NODE":"145.9105","MEAN_MOTION":"15.06404913","CENTER_NAME":"EARTH","DECAY_DATE":null,"SEMIMAJOR_AXIS":"6925.334","ECCENTRICITY":"0.00018400","REV_AT_EPOCH":"10077","EPHEMERIS_TYPE":"0","TIME_SYSTEM":"UTC","NORAD_CAT_ID":"45372","MEAN_ELEMENT_THEORY":"SGP4","LAUNCH_DATE":"2020-03-18","APOAPSIS":"548.473","COUNTRY_CODE":"US","ELEMENT_SET_NO":"999","EPOCH":"2022-01-10T15:20:14.460000"},{"RCS_SIZE":"LARGE","OBJECT_NAME":"STARLINK-1295","TLE_LINE1":"1 45373U 20019P   22010.62062978 -.00000321  00000-0 -26142-5 0  9997","BSTAR":"-0.00000261420000","OBJECT_TYPE":"PAYLOAD","REF_FRAME":"TEME","FILE":"3269118","MEAN_MOTION_DDOT":"0.0000000000000","MEAN_MOTION_DOT":"-0.00000321","INCLINATION":"53.0537","PERIAPSIS":"545.872","OBJECT_ID":"2020-019P","SITE":"AFETR","GP_ID":"193624138","PERIOD":"95.592","TLE_LINE2":"2 45373  53.0537 145.9849 0001933  91.8404 268.2807 15.06400995100776","MEAN_ANOMALY":"268.2807","APOAPSIS":"548.549","COUNTRY_CODE":"US","ELEMENT_SET_NO":"999","LAUNCH_DATE":"2020-03-18","EPOCH":"2022-01-10T14:53:42.412992","TIME_SYSTEM":"UTC","SEMIMAJOR_AXIS":"6925.346","DECAY_DATE":null,"ECCENTRICITY":"0.00019330","REV_AT_EPOCH":"10077","EPHEMERIS_TYPE":"0","MEAN_ELEMENT_THEORY":"SGP4","NORAD_CAT_ID":"45373","ARG_OF_PERICENTER":"91.8404","MEAN_MOTION":"15.06400995","CENTER_NAME":"EARTH","RA_OF_ASC_NODE":"145.9849","CLASSIFICATION_TYPE":"U"}];
